GLOBALSTAR M094         
1 39074U 13005C   24240.72074200 -.00000084  00000+0  11037-3 0  9993
2 39074  51.9987 355.6359 0000598  77.9099 282.1835 12.62267176535331
GLOBALSTAR M096         
1 39075U 13005D   24240.81316736 -.00000096  00000+0  40855-4 0  9991
2 39075  52.0086  43.6387 0000693  61.2573 298.8363 12.62269098534590
GLOBALSTAR M078         
1 39076U 13005E   24239.99482248 -.00000091  00000+0  71003-4 0  9995
2 39076  51.9865 131.0412 0000363 251.8288 108.2539 12.62275502532762
GLOBALSTAR M095         
1 39077U 13005F   24240.41716299 -.00000082  00000+0  12183-3 0  9994
2 39077  51.9792 127.0980 0000513 355.6912   4.3950 12.62263871532670
GLOBALSTAR M087         
1 52888U 22064A   24240.46887569 -.00000068  00000+0  11412-3 0  9996
2 52888  51.9773 319.8257 0009530 182.0665 178.0198 13.37583155107064
